STARLINK-37873          
1 69484U 26131G   26177.25002315  .00044141  00000+0  22998-3 0  9991
2 69484  97.2843 198.0643 0001542  91.0462 348.1537 15.80819052  3464
STARLINK-37892          
1 69485U 26131H   26177.25002315  .00009470  00000+0  50056-4 0  9995
2 69485  97.2837 198.0664 0001220  89.2713 354.1929 15.80846508  3460
STARLINK-37893          
1 69486U 26131J   26177.25002315 -.00019647  00000+0 -10192-3 0  9991
2 69486  97.2843 198.0681 0000713 103.5422 344.2037 15.80846600  3542
STARLINK-37842          
1 69487U 26131K   26177.25002315  .00041207  00000+0  21478-3 0  9996
2 69487  97.2841 198.0696 0001247  97.8997 354.1150 15.80823838  3467
STARLINK-37449          
1 69488U 26131L   26177.25002315  .00006264  00000+0  33373-4 0  9999
2 69488  97.2842 198.0715 0000773  82.8302  13.4477 15.80845690  3555
STARLINK-37831          
1 69489U 26131M   26177.25002315 -.00018015  00000+0 -93359-4 0  9999
2 69489  97.2843 198.0731 0000725  99.0589   1.5022 15.80851090  2126
STARLINK-37879          
1 69490U 26131N   26177.25002315 -.00004704  00000+0 -23797-4 0  9990
2 69490  97.2843 198.0754 0000889  80.8121  24.0133 15.80847985  3463
STARLINK-37856          
1 69491U 26131P   26177.25002315 -.00054271  00000+0 -28368-3 0  9993
2 69491  97.2842 198.0565 0001149  91.6979 329.6296 15.80867982  3524
STARLINK-37568          
1 69492U 26131Q   26177.25002315 -.00010699  00000+0 -55107-4 0  9992
2 69492  97.2842 198.0787 0001091  96.1064  17.2758 15.80846783  3554
STARLINK-37855          
1 69493U 26131R   26177.25002315 -.00003845  00000+0 -19324-4 0  9999
2 69493  97.2842 198.0636 0001078  95.5133 342.8777 15.80836284  3523
STARLINK-37854          
1 69494U 26131S   26177.25002315 -.00025771  00000+0 -13398-3 0  9996
2 69494  97.2840 198.0608 0000857 104.6436 327.0690 15.80853135  3526
STARLINK-37789          
1 69495U 26131T   26177.25002315  .00150589  00000+0  77466-3 0  9997
2 69495  97.2845 198.0833 0000855 131.1405 355.0228 15.80781189  3540
STARLINK-37839          
1 69496U 26131U   26177.25002315 -.00022737  00000+0 -11809-3 0  9992
2 69496  97.2844 198.0666 0001135  73.0564  12.5754 15.80849657  3528
STARLINK-37798          
1 69497U 26131V   26177.25002315 -.00006694  00000+0 -34181-4 0  9996
2 69497  97.2841 198.0859 0001248 103.3608  27.1159 15.80849184  3527
STARLINK-37853          
1 69498U 26131W   26177.25002315  .00015999  00000+0  84077-4 0  9992
2 69498  97.2837 198.0951 0000894  89.2838  62.5755 15.80826206  3524
STARLINK-37849          
1 69499U 26131X   26177.25002315  .00022480  00000+0  11776-3 0  9991
2 69499  97.2837 198.0932 0001175  99.2806  48.3025 15.80822635  3549
STARLINK-37835          
1 69500U 26131Y   26177.25002315 -.00053377  00000+0 -27888-3 0  9996
2 69500  97.2838 198.0891 0001274  80.4983  58.5190 15.80874111  2445
STARLINK-37843          
1 69501U 26131Z   26177.25002315  .00005986  00000+0  31933-4 0  9995
2 69501  97.2839 198.0913 0001173  90.8143  52.4870 15.80841328  3525
2026-132A               
1 69502U 26132A   26177.16644219  .00001161  00000+0  10046-3 0  9994
2 69502  97.6889 240.7236 0013152 236.5173 123.4793 14.99059596  2125
2026-132B               
1 69503U 26132B   26177.16560205  .00000883  00000+0  77361-4 0  9991
2 69503  97.6920 240.7304 0013052 238.6437 121.3509 14.99145273  2123
BRO-22                  
1 69504U 26132C   26177.15974061  .00000695  00000+0  60988-4 0  9998
2 69504  97.6854 240.7250 0014693 250.7149 109.2485 14.99766963  2120
2026-132D               
1 69505U 26132D   26176.40226340  .00003706  00000+0  26929-3 0  9998
2 69505  97.6876 240.0415 0016249 258.5580 101.3821 15.04379607  2012
VERTECS                 
1 69506U 26132E   26177.14917733  .00002634  00000+0  21119-3 0  9999
2 69506  97.6885 240.7470 0013285 272.7933  87.1771 15.00912950  2114
2026-132F               
1 69507U 26132F   26176.74061767  .00000884  00000+0  70490-4 0  9994
2 69507  97.6810 240.3655 0014050 272.7666  87.1951 15.02847044  2054
STARLINK-37536          
1 69508U 26133A   26177.25002315  .00173597  00000+0  86745-3 0  9998
2 69508  53.1598 276.6892 0001192  93.6411 139.2073 15.80823866  3429
STARLINK-37341          
1 69509U 26133B   26177.25002315  .00090618  00000+0  45830-3 0  9991
2 69509  53.1599 276.6604 0001657  88.4248 158.6794 15.80850955  3422
STARLINK-36536          
1 69510U 26133C   26177.25002315  .00149149  00000+0  74821-3 0  9999
2 69510  53.1600 276.6292 0001112  85.4835 176.7413 15.80814940  3372
STARLINK-37420          
1 69511U 26133D   26177.25002315  .00050622  00000+0  25882-3 0  9990
2 69511  53.1595 276.5874 0001173 100.8671 180.9507 15.80846867  3327
STARLINK-37511          
1 69512U 26133E   26177.25002315  .00093441  00000+0  47259-3 0  9999
2 69512  53.1596 276.6040 0000708 107.5718 166.7414 15.80838677  3323
STARLINK-37552          
1 69513U 26133F   26177.25002315  .00117762  00000+0  59437-3 0  9994
2 69513  53.1597 276.5571 0001382  69.7640 227.3154 15.80788638  3321
