OBJECT_NAME,OBJECT_ID,EPOCH,MEAN_MOTION,ECCENTRICITY,INCLINATION,RA_OF_ASC_NODE,ARG_OF_PERICENTER,MEAN_ANOMALY,EPHEMERIS_TYPE,CLASSIFICATION_TYPE,NORAD_CAT_ID,ELEMENT_SET_NO,REV_AT_EPOCH,BSTAR,MEAN_MOTION_DOT,MEAN_MOTION_DDOT
STARLINK-37873,2026-131G,2026-06-26T06:00:02.000160,15.80819052,.00015421,97.2843,198.0643,91.0462,348.1537,0,U,69484,999,346,.2299847E-3,.44141E-3,0
STARLINK-37892,2026-131H,2026-06-26T06:00:02.000160,15.80846508,.000122,97.2837,198.0664,89.2713,354.1929,0,U,69485,999,346,.50055578E-4,.947E-4,0
STARLINK-37893,2026-131J,2026-06-26T06:00:02.000160,15.80846600,.0000713,97.2843,198.0681,103.5422,344.2037,0,U,69486,999,354,-.1019202E-3,-.19647E-3,0
STARLINK-37842,2026-131K,2026-06-26T06:00:02.000160,15.80823838,.0001247,97.2841,198.0696,97.8997,354.1150,0,U,69487,999,346,.2147793E-3,.41207E-3,0
STARLINK-37449,2026-131L,2026-06-26T06:00:02.000160,15.80845690,.00007736,97.2842,198.0715,82.8302,13.4477,0,U,69488,999,355,.33373129E-4,.6264E-4,0
STARLINK-37831,2026-131M,2026-06-26T06:00:02.000160,15.80851090,.00007259,97.2843,198.0731,99.0589,1.5022,0,U,69489,999,212,-.93359436E-4,-.18015E-3,0
STARLINK-37879,2026-131N,2026-06-26T06:00:02.000160,15.80847985,.00008891,97.2843,198.0754,80.8121,24.0133,0,U,69490,999,346,-.23796513E-4,-.4704E-4,0
STARLINK-37856,2026-131P,2026-06-26T06:00:02.000160,15.80867982,.00011495,97.2842,198.0565,91.6979,329.6296,0,U,69491,999,352,-.28368153E-3,-.54271E-3,0
STARLINK-37568,2026-131Q,2026-06-26T06:00:02.000160,15.80846783,.00010917,97.2842,198.0787,96.1064,17.2758,0,U,69492,999,355,-.5510706E-4,-.10699E-3,0
STARLINK-37855,2026-131R,2026-06-26T06:00:02.000160,15.80836284,.00010783,97.2842,198.0636,95.5133,342.8777,0,U,69493,999,352,-.19323777E-4,-.3845E-4,0
STARLINK-37854,2026-131S,2026-06-26T06:00:02.000160,15.80853135,.00008579,97.2840,198.0608,104.6436,327.0690,0,U,69494,999,352,-.13397558E-3,-.25771E-3,0
STARLINK-37789,2026-131T,2026-06-26T06:00:02.000160,15.80781189,.00008555,97.2845,198.0833,131.1405,355.0228,0,U,69495,999,354,.77465914E-3,.150589E-2,0
STARLINK-37839,2026-131U,2026-06-26T06:00:02.000160,15.80849657,.00011356,97.2844,198.0666,73.0564,12.5754,0,U,69496,999,352,-.11808747E-3,-.22737E-3,0
STARLINK-37798,2026-131V,2026-06-26T06:00:02.000160,15.80849184,.00012488,97.2841,198.0859,103.3608,27.1159,0,U,69497,999,352,-.34180519E-4,-.6694E-4,0
STARLINK-37853,2026-131W,2026-06-26T06:00:02.000160,15.80826206,.00008944,97.2837,198.0951,89.2838,62.5755,0,U,69498,999,352,.84076834E-4,.15999E-3,0
STARLINK-37849,2026-131X,2026-06-26T06:00:02.000160,15.80822635,.0001175,97.2837,198.0932,99.2806,48.3025,0,U,69499,999,354,.11776145E-3,.2248E-3,0
STARLINK-37835,2026-131Y,2026-06-26T06:00:02.000160,15.80874111,.00012744,97.2838,198.0891,80.4983,58.5190,0,U,69500,999,244,-.27888332E-3,-.53377E-3,0
STARLINK-37843,2026-131Z,2026-06-26T06:00:02.000160,15.80841328,.00011737,97.2839,198.0913,90.8143,52.4870,0,U,69501,999,352,.31932818E-4,.5986E-4,0
2026-132A,2026-132A,2026-06-26T03:59:40.605216,14.99059596,.00131521,97.6889,240.7236,236.5173,123.4793,0,U,69502,999,212,.10046309E-3,.1161E-4,0
2026-132B,2026-132B,2026-06-26T03:58:28.017120,14.99145273,.00130527,97.6920,240.7304,238.6437,121.3509,0,U,69503,999,212,.7736147E-4,.883E-5,0
BRO-22,2026-132C,2026-06-26T03:50:01.588704,14.99766963,.00146937,97.6854,240.7250,250.7149,109.2485,0,U,69504,999,212,.60987727E-4,.695E-5,0
2026-132D,2026-132D,2026-06-25T09:39:15.557760,15.04379607,.0016249,97.6876,240.0415,258.5580,101.3821,0,U,69505,999,201,.26929E-3,.3706E-4,0
VERTECS,2026-132E,2026-06-26T03:34:48.921312,15.00912950,.00132855,97.6885,240.7470,272.7933,87.1771,0,U,69506,999,211,.21119322E-3,.2634E-4,0
2026-132F,2026-132F,2026-06-25T17:46:29.366688,15.02847044,.00140502,97.6810,240.3655,272.7666,87.1951,0,U,69507,999,205,.7049021E-4,.884E-5,0
STARLINK-37536,2026-133A,2026-06-26T06:00:02.000160,15.80823866,.0001192,53.1598,276.6892,93.6411,139.2073,0,U,69508,999,342,.86745068E-3,.173597E-2,0
STARLINK-37341,2026-133B,2026-06-26T06:00:02.000160,15.80850955,.00016579,53.1599,276.6604,88.4248,158.6794,0,U,69509,999,342,.45830212E-3,.90618E-3,0
STARLINK-36536,2026-133C,2026-06-26T06:00:02.000160,15.80814940,.00011123,53.1600,276.6292,85.4835,176.7413,0,U,69510,999,337,.74821001E-3,.149149E-2,0
STARLINK-37420,2026-133D,2026-06-26T06:00:02.000160,15.80846867,.00011736,53.1595,276.5874,100.8671,180.9507,0,U,69511,999,332,.25882023E-3,.50622E-3,0
STARLINK-37511,2026-133E,2026-06-26T06:00:02.000160,15.80838677,.00007081,53.1596,276.6040,107.5718,166.7414,0,U,69512,999,332,.47259263E-3,.93441E-3,0
STARLINK-37552,2026-133F,2026-06-26T06:00:02.000160,15.80788638,.0001382,53.1597,276.5571,69.7640,227.3154,0,U,69513,999,332,.59437036E-3,.117762E-2,0
